CCSDS_OMM_VERS = 2.0
CREATION_DATE  = 
ORIGINATOR     = 

OBJECT_NAME    = STARLINK-36908
OBJECT_ID      = 2026-037P
CENTER_NAME    = EARTH
REF_FRAME      = TEME
TIME_SYSTEM    = UTC
MEAN_ELEMENT_THEORY = SGP/SGP4

EPOCH          = 2026-03-03T14:00:03.000384
MEAN_MOTION    = 15.99014038
ECCENTRICITY   = .0001686
INCLINATION    = 43.0004
RA_OF_ASC_NODE = 236.3199
ARG_OF_PERICENTER = 267.8216
MEAN_ANOMALY   = 337.1882

EPHEMERIS_TYPE = 0
CLASSIFICATION_TYPE = U
NORAD_CAT_ID   = 67945
ELEMENT_SET_NO = 999
REV_AT_EPOCH   = 221
BSTAR          = -.26591E-2
MEAN_MOTION_DOT = -.1336211E-1
MEAN_MOTION_DDOT = .55105E-3

CCSDS_OMM_VERS = 2.0
CREATION_DATE  = 
ORIGINATOR     = 

OBJECT_NAME    = STARLINK-36909
OBJECT_ID      = 2026-037Q
CENTER_NAME    = EARTH
REF_FRAME      = TEME
TIME_SYSTEM    = UTC
MEAN_ELEMENT_THEORY = SGP/SGP4

EPOCH          = 2026-03-03T14:00:03.000384
MEAN_MOTION    = 15.99108314
ECCENTRICITY   = .0001661
INCLINATION    = 43.0004
RA_OF_ASC_NODE = 236.3171
ARG_OF_PERICENTER = 268.8543
MEAN_ANOMALY   = 337.3728

EPHEMERIS_TYPE = 0
CLASSIFICATION_TYPE = U
NORAD_CAT_ID   = 67946
ELEMENT_SET_NO = 999
REV_AT_EPOCH   = 221
BSTAR          = -.26255E-2
MEAN_MOTION_DOT = -.132651E-1
MEAN_MOTION_DDOT = .54429E-3

CCSDS_OMM_VERS = 2.0
CREATION_DATE  = 
ORIGINATOR     = 

OBJECT_NAME    = STARLINK-36920
OBJECT_ID      = 2026-037R
CENTER_NAME    = EARTH
REF_FRAME      = TEME
TIME_SYSTEM    = UTC
MEAN_ELEMENT_THEORY = SGP/SGP4

EPOCH          = 2026-03-03T14:00:03.000384
MEAN_MOTION    = 15.99248970
ECCENTRICITY   = .0001548
INCLINATION    = 43.0005
RA_OF_ASC_NODE = 236.3119
ARG_OF_PERICENTER = 266.1203
MEAN_ANOMALY   = 342.0764

EPHEMERIS_TYPE = 0
CLASSIFICATION_TYPE = U
NORAD_CAT_ID   = 67947
ELEMENT_SET_NO = 999
REV_AT_EPOCH   = 221
BSTAR          = -.26085E-2
MEAN_MOTION_DOT = -.1328427E-1
MEAN_MOTION_DDOT = .54655E-3

CCSDS_OMM_VERS = 2.0
CREATION_DATE  = 
ORIGINATOR     = 

OBJECT_NAME    = STARLINK-36873
OBJECT_ID      = 2026-037S
CENTER_NAME    = EARTH
REF_FRAME      = TEME
TIME_SYSTEM    = UTC
MEAN_ELEMENT_THEORY = SGP/SGP4

EPOCH          = 2026-03-03T14:00:03.000384
MEAN_MOTION    = 15.99359873
ECCENTRICITY   = .0001518
INCLINATION    = 43.0006
RA_OF_ASC_NODE = 236.3081
ARG_OF_PERICENTER = 267.1998
MEAN_ANOMALY   = 342.5143

EPHEMERIS_TYPE = 0
CLASSIFICATION_TYPE = U
NORAD_CAT_ID   = 67948
ELEMENT_SET_NO = 999
REV_AT_EPOCH   = 221
BSTAR          = -.25803E-2
MEAN_MOTION_DOT = -.1322456E-1
MEAN_MOTION_DDOT = .5427E-3

CCSDS_OMM_VERS = 2.0
CREATION_DATE  = 
ORIGINATOR     = 

OBJECT_NAME    = STARLINK-36863
OBJECT_ID      = 2026-037T
CENTER_NAME    = EARTH
REF_FRAME      = TEME
TIME_SYSTEM    = UTC
MEAN_ELEMENT_THEORY = SGP/SGP4

EPOCH          = 2026-03-03T14:00:03.000384
MEAN_MOTION    = 15.99500673
ECCENTRICITY   = .0001674
INCLINATION    = 43.0007
RA_OF_ASC_NODE = 236.3030
ARG_OF_PERICENTER = 264.1643
MEAN_ANOMALY   = 347.5465

EPHEMERIS_TYPE = 0
CLASSIFICATION_TYPE = U
NORAD_CAT_ID   = 67949
ELEMENT_SET_NO = 999
REV_AT_EPOCH   = 221
BSTAR          = -.25537E-2
MEAN_MOTION_DOT = -.131942E-1
MEAN_MOTION_DDOT = .54123E-3

CCSDS_OMM_VERS = 2.0
CREATION_DATE  = 
ORIGINATOR     = 

OBJECT_NAME    = STARLINK-36887
OBJECT_ID      = 2026-037U
CENTER_NAME    = EARTH
REF_FRAME      = TEME
TIME_SYSTEM    = UTC
MEAN_ELEMENT_THEORY = SGP/SGP4

EPOCH          = 2026-03-03T14:00:03.000384
MEAN_MOTION    = 15.99644597
ECCENTRICITY   = .0001456
INCLINATION    = 43.0006
RA_OF_ASC_NODE = 236.2976
ARG_OF_PERICENTER = 266.5557
MEAN_ANOMALY   = 347.2400

EPHEMERIS_TYPE = 0
CLASSIFICATION_TYPE = U
NORAD_CAT_ID   = 67950
ELEMENT_SET_NO = 999
REV_AT_EPOCH   = 221
BSTAR          = -.25303E-2
MEAN_MOTION_DOT = -.1318106E-1
MEAN_MOTION_DDOT = .54107E-3

CCSDS_OMM_VERS = 2.0
CREATION_DATE  = 
ORIGINATOR     = 

OBJECT_NAME    = STARLINK-36897
OBJECT_ID      = 2026-037V
CENTER_NAME    = EARTH
REF_FRAME      = TEME
TIME_SYSTEM    = UTC
MEAN_ELEMENT_THEORY = SGP/SGP4

EPOCH          = 2026-03-03T14:00:03.000384
MEAN_MOTION    = 15.99773925
ECCENTRICITY   = .0001384
INCLINATION    = 43.0008
RA_OF_ASC_NODE = 236.2936
ARG_OF_PERICENTER = 268.1039
MEAN_ANOMALY   = 347.4177

EPHEMERIS_TYPE = 0
CLASSIFICATION_TYPE = U
NORAD_CAT_ID   = 67951
ELEMENT_SET_NO = 999
REV_AT_EPOCH   = 221
BSTAR          = -.2517E-2
MEAN_MOTION_DOT = -.1320833E-1
MEAN_MOTION_DDOT = .54388E-3

CCSDS_OMM_VERS = 2.0
CREATION_DATE  = 
ORIGINATOR     = 

OBJECT_NAME    = STARLINK-36381
OBJECT_ID      = 2026-037W
CENTER_NAME    = EARTH
REF_FRAME      = TEME
TIME_SYSTEM    = UTC
MEAN_ELEMENT_THEORY = SGP/SGP4

EPOCH          = 2026-03-03T14:00:03.000384
MEAN_MOTION    = 15.99995812
ECCENTRICITY   = .000173
INCLINATION    = 43.0007
RA_OF_ASC_NODE = 236.2855
ARG_OF_PERICENTER = 267.6650
MEAN_ANOMALY   = 350.9238

EPHEMERIS_TYPE = 0
CLASSIFICATION_TYPE = U
NORAD_CAT_ID   = 67952
ELEMENT_SET_NO = 999
REV_AT_EPOCH   = 221
BSTAR          = -.24652E-2
MEAN_MOTION_DOT = -.131041E-1
MEAN_MOTION_DDOT = .53732E-3

CCSDS_OMM_VERS = 2.0
CREATION_DATE  = 
ORIGINATOR     = 

OBJECT_NAME    = STARLINK-36824
OBJECT_ID      = 2026-037X
CENTER_NAME    = EARTH
REF_FRAME      = TEME
TIME_SYSTEM    = UTC
MEAN_ELEMENT_THEORY = SGP/SGP4

EPOCH          = 2026-03-03T14:00:03.000384
MEAN_MOTION    = 15.99884955
ECCENTRICITY   = .000168
INCLINATION    = 43.0008
RA_OF_ASC_NODE = 236.2897
ARG_OF_PERICENTER = 264.3908
MEAN_ANOMALY   = 352.6688

EPHEMERIS_TYPE = 0
CLASSIFICATION_TYPE = U
NORAD_CAT_ID   = 67953
ELEMENT_SET_NO = 999
REV_AT_EPOCH   = 221
BSTAR          = -.24915E-2
MEAN_MOTION_DOT = -.1315926E-1
MEAN_MOTION_DDOT = .54083E-3

CCSDS_OMM_VERS = 2.0
CREATION_DATE  = 
ORIGINATOR     = 

OBJECT_NAME    = STARLINK-36869
OBJECT_ID      = 2026-037Y
CENTER_NAME    = EARTH
REF_FRAME      = TEME
TIME_SYSTEM    = UTC
MEAN_ELEMENT_THEORY = SGP/SGP4

EPOCH          = 2026-03-03T14:00:03.000384
MEAN_MOTION    = 16.00092015
ECCENTRICITY   = .0001738
INCLINATION    = 43.0006
RA_OF_ASC_NODE = 236.2823
ARG_OF_PERICENTER = 266.4896
MEAN_ANOMALY   = 353.3457

EPHEMERIS_TYPE = 0
CLASSIFICATION_TYPE = U
NORAD_CAT_ID   = 67954
ELEMENT_SET_NO = 999
REV_AT_EPOCH   = 221
BSTAR          = -.24398E-2
MEAN_MOTION_DOT = -.1304184E-1
MEAN_MOTION_DDOT = .53321E-3

CCSDS_OMM_VERS = 2.0
CREATION_DATE  = 
ORIGINATOR     = 

OBJECT_NAME    = STARLINK-36872
OBJECT_ID      = 2026-037Z
CENTER_NAME    = EARTH
REF_FRAME      = TEME
TIME_SYSTEM    = UTC
MEAN_ELEMENT_THEORY = SGP/SGP4

EPOCH          = 2026-03-03T14:00:03.000384
MEAN_MOTION    = 16.00344250
ECCENTRICITY   = .0001684
INCLINATION    = 43.0005
RA_OF_ASC_NODE = 236.2730
ARG_OF_PERICENTER = 262.9255
MEAN_ANOMALY   = 0.4564

EPHEMERIS_TYPE = 0
CLASSIFICATION_TYPE = U
NORAD_CAT_ID   = 67955
ELEMENT_SET_NO = 999
REV_AT_EPOCH   = 221
BSTAR          = -.23955E-2
MEAN_MOTION_DOT = -.1299274E-1
MEAN_MOTION_DDOT = .53098E-3

CCSDS_OMM_VERS = 2.0
CREATION_DATE  = 
ORIGINATOR     = 

OBJECT_NAME    = STARLINK-36918
OBJECT_ID      = 2026-037AA
CENTER_NAME    = EARTH
REF_FRAME      = TEME
TIME_SYSTEM    = UTC
MEAN_ELEMENT_THEORY = SGP/SGP4

EPOCH          = 2026-03-03T14:00:03.000384
MEAN_MOTION    = 16.00481073
ECCENTRICITY   = .0001691
INCLINATION    = 43.0006
RA_OF_ASC_NODE = 236.2684
ARG_OF_PERICENTER = 262.3141
MEAN_ANOMALY   = 2.9459

EPHEMERIS_TYPE = 0
CLASSIFICATION_TYPE = U
NORAD_CAT_ID   = 67956
ELEMENT_SET_NO = 999
REV_AT_EPOCH   = 221
BSTAR          = -.23783E-2
MEAN_MOTION_DOT = -.1300147E-1
MEAN_MOTION_DDOT = .53242E-3

